{
  "norad_id": 16908,
  "name": "AJISAI (EGS)",
  "history": [
    {
      "epoch": "2026-03-28T21:40:21.913824Z",
      "apogee_km": 1496.4309999494099,
      "perigee_km": 1478.606480163753,
      "latitude_deg": 31.83731529317345,
      "longitude_deg": -85.92706088447565,
      "height_km": 1485.7096065132143,
      "semi_major_axis_km": 7865.655740056582,
      "eccentricity": 0.00113306,
      "inclination_deg": 50.0112,
      "raan_deg": 34.2653,
      "arg_perigee_deg": 336.5299,
      "mean_anomaly_deg": 66.7187,
      "mean_motion_rev_day": 12.44515644
    },
    {
      "epoch": "2026-03-29T03:55:27.715008Z",
      "apogee_km": 1496.432913016457,
      "perigee_km": 1478.6046176587424,
      "latitude_deg": 35.43102262199574,
      "longitude_deg": -68.40482874733578,
      "height_km": 1497.9032544347622,
      "semi_major_axis_km": 7865.655765337599,
      "eccentricity": 0.0011333,
      "inclination_deg": 50.0113,
      "raan_deg": 33.4644,
      "arg_perigee_deg": 337.1729,
      "mean_anomaly_deg": 153.7726,
      "mean_motion_rev_day": 12.44515638
    },
    {
      "epoch": "2026-03-30T05:07:10.054848Z",
      "apogee_km": 1496.436904900267,
      "perigee_km": 1478.6007437530234,
      "latitude_deg": 17.46719593220633,
      "longitude_deg": -69.3904603285736,
      "height_km": 1496.3421036362897,
      "semi_major_axis_km": 7865.6558243266445,
      "eccentricity": 0.0011338,
      "inclination_deg": 50.0115,
      "raan_deg": 30.2365,
      "arg_perigee_deg": 339.8576,
      "mean_anomaly_deg": 177.1119,
      "mean_motion_rev_day": 12.44515624
    },
    {
      "epoch": "2026-03-30T07:07:10.941888Z",
      "apogee_km": 1496.43714508822,
      "perigee_km": 1478.6005119920737,
      "latitude_deg": 7.195237673945593,
      "longitude_deg": -90.55425213197505,
      "height_km": 1496.1310890408738,
      "semi_major_axis_km": 7865.655828540147,
      "eccentricity": 0.00113383,
      "inclination_deg": 50.0115,
      "raan_deg": 29.9803,
      "arg_perigee_deg": 340.0724,
      "mean_anomaly_deg": 190.5098,
      "mean_motion_rev_day": 12.44515623
    }
  ]
}